{
  "type": "FeatureCollection",
  "features": [
    {
      "type": "Feature",
      "properties": {
        "name": "Tuzla Borders"
      },
      "geometry": {
        "type": "Polygon",
        "coordinates": [
          [
            [
              18.60082290285415,
              44.51065275861434
            ],
            [
              18.60669289698366,
              44.50923300420293
            ],
            [
              18.60983345029381,
              44.50896616266869
            ],
            [
              18.61298785264969,
              44.50929619522261
            ],
            [
              18.61928756629427,
              44.50909731266963
            ],
            [
              18.62249832491683,
              44.50949961192742
            ],
            [
              18.62451107131781,
              44.50929071363079
            ],
            [
              18.6254672313559,
              44.50980323841619
            ],
            [
              18.63173217803937,
              44.50926100654753
            ],
            [
              18.63508694255863,
              44.50925445589801
            ],
            [
              18.6379678644698,
              44.50953429116438
            ],
            [
              18.64158127560923,
              44.51001725500689
            ],
            [
              18.64351065902456,
              44.51036935925217
            ],
            [
              18.64442583402448,
              44.511186586292
            ],
            [
              18.64797586198612,
              44.51136771921017
            ],
            [
              18.64992939811174,
              44.51146156921763
            ],
            [
              18.65134041115999,
              44.51221510104036
            ],
            [
              18.65316621233034,
              44.51224514059512
            ],
            [
              18.65478079805469,
              44.51270208380262
            ],
            [
              18.65649320325339,
              44.5128910820459
            ],
            [
              18.6577494629253,
              44.5136484863061
            ],
            [
              18.66153106336129,
              44.51323236353007
            ],
            [
              18.66384107977781,
              44.51310454254606
            ],
            [
              18.66535443604577,
              44.5133291922192
            ],
            [
              18.66888905590851,
              44.51459534284288
            ],
            [
              18.67074638838219,
              44.51504764484135
            ],
            [
              18.6723334106074,
              44.51505586918763
            ],
            [
              18.67388947171683,
              44.51566940970718
            ],
            [
              18.67611867793117,
              44.5159041239135
            ],
            [
              18.67854716867103,
              44.51638009081037
            ],
            [
              18.680833055845,
              44.51607982944236
            ],
            [
              18.68588505508137,
              44.51476493621937
            ],
            [
              18.69068016035797,
              44.5136556333732
            ],
            [
              18.69330820832112,
              44.51287010986991
            ],
            [
              18.69622526553057,
              44.5128678896284
            ],
            [
              18.69874719082982,
              44.51208636834245
            ],
            [
              18.69989893813685,
              44.51085670080415
            ],
            [
              18.70457958213064,
              44.51059895542475
            ],
            [
              18.70848278880521,
              44.50998548411304
            ],
            [
              18.71172170707234,
              44.51008811392595
            ],
            [
              18.71530860533859,
              44.50974545393328
            ],
            [
              18.72007989134773,
              44.50921253887867
            ],
            [
              18.72435853060165,
              44.50841102549914
            ],
            [
              18.72730095903589,
              44.50771281886754
            ],
            [
              18.72996927316768,
              44.50660367986924
            ],
            [
              18.73037700817568,
              44.50901310397622
            ],
            [
              18.73147978128751,
              44.51126038749315
            ],
            [
              18.73326430244623,
              44.51369213325426
            ],
            [
              18.73121794133179,
              44.51553830750417
            ],
            [
              18.7299117294634,
              44.51761976631258
            ],
            [
              18.72779056991546,
              44.52195679870343
            ],
            [
              18.72862770477035,
              44.52505442844935
            ],
            [
              18.730030381816,
              44.52813789533891
            ],
            [
              18.73395490686314,
              44.5298611136825
            ],
            [
              18.73673654249396,
              44.53233524070126
            ],
            [
              18.73894573558904,
              44.53427291982564
            ],
            [
              18.74053695148518,
              44.53632036679905
            ],
            [
              18.74326686398078,
              44.5380246692221
            ],
            [
              18.74428105773454,
              44.54010470639989
            ],
            [
              18.74240057364098,
              44.5412527742611
            ],
            [
              18.74117142604473,
              44.5427088008014
            ],
            [
              18.73809603601386,
              44.54390551885245
            ],
            [
              18.73563746453168,
              44.54447090819321
            ],
            [
              18.7325518413639,
              44.54403500927381
            ],
            [
              18.72867541182674,
              44.54161553322187
            ],
            [
              18.72229948437519,
              44.53957687791226
            ],
            [
              18.71894355132893,
              44.53903963516922
            ],
            [
              18.71689833753057,
              44.53887074667461
            ],
            [
              18.7144740193419,
              44.53893653186285
            ],
            [
              18.71378064517705,
              44.53928823966632
            ],
            [
              18.70970425623338,
              44.54050737093923
            ],
            [
              18.70827749787122,
              44.53858069166596
            ],
            [
              18.702160306015,
              44.53945116141445
            ],
            [
              18.7027968275776,
              44.54232942629002
            ],
            [
              18.70462599701238,
              44.54748409743728
            ],
            [
              18.70527207256158,
              44.55055796494904
            ],
            [
              18.70749048273094,
              44.55288478205125
            ],
            [
              18.70837501944997,
              44.55681467080247
            ],
            [
              18.70780731228625,
              44.56042251974675
            ],
            [
              18.70753644007193,
              44.56374330006675
            ],
            [
              18.70570466139358,
              44.56519891020783
            ],
            [
              18.70455254139017,
              44.56590000490096
            ],
            [
              18.7027749014297,
              44.56620635067387
            ],
            [
              18.70119645448489,
              44.56873987109
            ],
            [
              18.70155671713798,
              44.57006319701692
            ],
            [
              18.70120577934484,
              44.5713653220737
            ],
            [
              18.700076085415,
              44.57397703963723
            ],
            [
              18.69623412668961,
              44.57136051937178
            ],
            [
              18.69380009857034,
              44.57175175308404
            ],
            [
              18.69191458197612,
              44.57170748204729
            ],
            [
              18.69013403412812,
              44.57136296423789
            ],
            [
              18.6880735435169,
              44.57159796783115
            ],
            [
              18.68569673310028,
              44.57113576748325
            ],
            [
              18.68433103049308,
              44.57146151316675
            ],
            [
              18.68266834353934,
              44.57120840000628
            ],
            [
              18.67972266971374,
              44.57059560049229
            ],
            [
              18.67607131720287,
              44.57151898980575
            ],
            [
              18.67112377905452,
              44.57226109188299
            ],
            [
              18.66890995108747,
              44.57215754820979
            ],
            [
              18.6659329190814,
              44.57151004007883
            ],
            [
              18.66210476442017,
              44.57132301485307
            ],
            [
              18.65921115086505,
              44.57001272227938
            ],
            [
              18.65724443415596,
              44.566862244707
            ],
            [
              18.65435774467505,
              44.56688423685804
            ],
            [
              18.65208147320537,
              44.56547023613628
            ],
            [
              18.65193263419773,
              44.56425040032636
            ],
            [
              18.65019163912381,
              44.56380097441776
            ],
            [
              18.6500061357305,
              44.56244034206969
            ],
            [
              18.6488908039098,
              44.56167620780202
            ],
            [
              18.64634883015657,
              44.56009350995522
            ],
            [
              18.64452513754771,
              44.55931819468324
            ],
            [
              18.64289105673826,
              44.55903654344747
            ],
            [
              18.6399376250831,
              44.5576468979212
            ],
            [
              18.63840604518549,
              44.55690863459341
            ],
            [
              18.63649802208136,
              44.55657694570782
            ],
            [
              18.63378853802526,
              44.55486589499431
            ],
            [
              18.63194207813196,
              44.55443876847058
            ],
            [
              18.63066607496859,
              44.55344520928834
            ],
            [
              18.62926998236878,
              44.55196242660237
            ],
            [
              18.62733479773662,
              44.55102113999175
            ],
            [
              18.62763905050524,
              44.54944338516767
            ],
            [
              18.62715770859257,
              44.54741851331966
            ],
            [
              18.62663628286875,
              44.54668213249511
            ],
            [
              18.62590405246822,
              44.54570526221488
            ],
            [
              18.6256514650956,
              44.54474881259001
            ],
            [
              18.62516717305094,
              44.54373014789502
            ],
            [
              18.62529116255334,
              44.54275076436934
            ],
            [
              18.62475499639369,
              44.54076853511074
            ],
            [
              18.62372348601046,
              44.53904133603463
            ],
            [
              18.62391598212369,
              44.53685201401593
            ],
            [
              18.62423515029786,
              44.53447153256802
            ],
            [
              18.62483440296689,
              44.53282507502734
            ],
            [
              18.62427085585156,
              44.53104167351679
            ],
            [
              18.62463162098438,
              44.52948756157009
            ],
            [
              18.62186162330275,
              44.52903976574281
            ],
            [
              18.61800330006701,
              44.52812162703916
            ],
            [
              18.61470709133071,
              44.52743529071358
            ],
            [
              18.61073309132122,
              44.52621440127452
            ],
            [
              18.60443544119352,
              44.52315773115012
            ],
            [
              18.59979332058397,
              44.51955014368105
            ],
            [
              18.59535384660591,
              44.51856705785639
            ],
            [
              18.59138107761134,
              44.51836406548709
            ],
            [
              18.59195050585857,
              44.51652986811253
            ],
            [
              18.5943136261478,
              44.51455615907665
            ],
            [
              18.59534609248307,
              44.51318813732205
            ],
            [
              18.59701276112253,
              44.51221481479319
            ],
            [
              18.60082290285415,
              44.51065275861434
            ]
          ]
        ]
      }
    }
  ]
}