<?xml version="1.0" encoding="UTF-8"?>
<kml xmlns="http://www.opengis.net/kml/2.2" xmlns:gx="http://www.google.com/kml/ext/2.2" xmlns:kml="http://www.opengis.net/kml/2.2" xmlns:atom="http://www.w3.org/2005/Atom">
<Document id="document">
	<name>Tuzla</name>
	<Style id="tuzla-border-style">
		<LineStyle>
			<color>ff2dc0fb</color>
			<width>8</width>
		</LineStyle>
		<PolyStyle>
			<color>002dc0fb</color>
			<fill>0</fill>
			<outline>1</outline>
		</PolyStyle>
	</Style>
	<Placemark id="0454CA18E34048CA63D8">
		<name>Tuzla Borders</name>
		<LookAt>
			<longitude>18.67294136512849</longitude>
			<latitude>44.53585314550483</latitude>
			<altitude>264.6968180458369</altitude>
			<heading>8.935872275749018</heading>
			<tilt>6.269450270451425</tilt>
			<gx:fovy>35</gx:fovy>
			<range>20171.6597854835</range>
			<altitudeMode>absolute</altitudeMode>
		</LookAt>
		<styleUrl>#tuzla-border-style</styleUrl>
		<Polygon>
			<outerBoundaryIs>
				<LinearRing>
					<coordinates>
						18.60082290285415,44.51065275861434,0 18.60669289698366,44.50923300420293,0 18.60983345029381,44.50896616266869,0 18.61298785264969,44.50929619522261,0 18.61928756629427,44.50909731266963,0 18.62249832491683,44.50949961192742,0 18.62451107131781,44.50929071363079,0 18.6254672313559,44.50980323841619,0 18.63173217803937,44.50926100654753,0 18.63508694255863,44.50925445589801,0 18.6379678644698,44.50953429116438,0 18.64158127560923,44.51001725500689,0 18.64351065902456,44.51036935925217,0 18.64442583402448,44.511186586292,0 18.64797586198612,44.51136771921017,0 18.64992939811174,44.51146156921763,0 18.65134041115999,44.51221510104036,0 18.65316621233034,44.51224514059512,0 18.65478079805469,44.51270208380262,0 18.65649320325339,44.5128910820459,0 18.6577494629253,44.5136484863061,0 18.66153106336129,44.51323236353007,0 18.66384107977781,44.51310454254606,0 18.66535443604577,44.5133291922192,0 18.66888905590851,44.51459534284288,0 18.67074638838219,44.51504764484135,0 18.6723334106074,44.51505586918763,0 18.67388947171683,44.51566940970718,0 18.67611867793117,44.5159041239135,0 18.67854716867103,44.51638009081037,0 18.680833055845,44.51607982944236,0 18.68588505508137,44.51476493621937,0 18.69068016035797,44.5136556333732,0 18.69330820832112,44.51287010986991,0 18.69622526553057,44.5128678896284,0 18.69874719082982,44.51208636834245,0 18.69989893813685,44.51085670080415,0 18.70457958213064,44.51059895542475,0 18.70848278880521,44.50998548411304,0 18.71172170707234,44.51008811392595,0 18.71530860533859,44.50974545393328,0 18.72007989134773,44.50921253887867,0 18.72435853060165,44.50841102549914,0 18.72730095903589,44.50771281886754,0 18.72996927316768,44.50660367986924,0 18.73037700817568,44.50901310397622,0 18.73147978128751,44.51126038749315,0 18.73326430244623,44.51369213325426,0 18.73121794133179,44.51553830750417,0 18.7299117294634,44.51761976631258,0 18.72779056991546,44.52195679870343,0 18.72862770477035,44.52505442844935,0 18.730030381816,44.52813789533891,0 18.73395490686314,44.5298611136825,0 18.73673654249396,44.53233524070126,0 18.73894573558904,44.53427291982564,0 18.74053695148518,44.53632036679905,0 18.74326686398078,44.5380246692221,0 18.74428105773454,44.54010470639989,0 18.74240057364098,44.5412527742611,0 18.74117142604473,44.5427088008014,0 18.73809603601386,44.54390551885245,0 18.73563746453168,44.54447090819321,0 18.7325518413639,44.54403500927381,0 18.72867541182674,44.54161553322187,0 18.72229948437519,44.53957687791226,0 18.71894355132893,44.53903963516922,0 18.71689833753057,44.53887074667461,0 18.7144740193419,44.53893653186285,0 18.71378064517705,44.53928823966632,0 18.70970425623338,44.54050737093923,0 18.70827749787122,44.53858069166596,0 18.702160306015,44.53945116141445,0 18.7027968275776,44.54232942629002,0 18.70462599701238,44.54748409743728,0 18.70527207256158,44.55055796494904,0 18.70749048273094,44.55288478205125,0 18.70837501944997,44.55681467080247,0 18.70780731228625,44.56042251974675,0 18.70753644007193,44.56374330006675,0 18.70570466139358,44.56519891020783,0 18.70455254139017,44.56590000490096,0 18.7027749014297,44.56620635067387,0 18.70119645448489,44.56873987109,0 18.70155671713798,44.57006319701692,0 18.70120577934484,44.5713653220737,0 18.700076085415,44.57397703963723,0 18.69623412668961,44.57136051937178,0 18.69380009857034,44.57175175308404,0 18.69191458197612,44.57170748204729,0 18.69013403412812,44.57136296423789,0 18.6880735435169,44.57159796783115,0 18.68569673310028,44.57113576748325,0 18.68433103049308,44.57146151316675,0 18.68266834353934,44.57120840000628,0 18.67972266971374,44.57059560049229,0 18.67607131720287,44.57151898980575,0 18.67112377905452,44.57226109188299,0 18.66890995108747,44.57215754820979,0 18.6659329190814,44.57151004007883,0 18.66210476442017,44.57132301485307,0 18.65921115086505,44.57001272227938,0 18.65724443415596,44.566862244707,0 18.65435774467505,44.56688423685804,0 18.65208147320537,44.56547023613628,0 18.65193263419773,44.56425040032636,0 18.65019163912381,44.56380097441776,0 18.6500061357305,44.56244034206969,0 18.6488908039098,44.56167620780202,0 18.64634883015657,44.56009350995522,0 18.64452513754771,44.55931819468324,0 18.64289105673826,44.55903654344747,0 18.6399376250831,44.5576468979212,0 18.63840604518549,44.55690863459341,0 18.63649802208136,44.55657694570782,0 18.63378853802526,44.55486589499431,0 18.63194207813196,44.55443876847058,0 18.63066607496859,44.55344520928834,0 18.62926998236878,44.55196242660237,0 18.62733479773662,44.55102113999175,0 18.62763905050524,44.54944338516767,0 18.62715770859257,44.54741851331966,0 18.62663628286875,44.54668213249511,0 18.62590405246822,44.54570526221488,0 18.6256514650956,44.54474881259001,0 18.62516717305094,44.54373014789502,0 18.62529116255334,44.54275076436934,0 18.62475499639369,44.54076853511074,0 18.62372348601046,44.53904133603463,0 18.62391598212369,44.53685201401593,0 18.62423515029786,44.53447153256802,0 18.62483440296689,44.53282507502734,0 18.62427085585156,44.53104167351679,0 18.62463162098438,44.52948756157009,0 18.62186162330275,44.52903976574281,0 18.61800330006701,44.52812162703916,0 18.61470709133071,44.52743529071358,0 18.61073309132122,44.52621440127452,0 18.60443544119352,44.52315773115012,0 18.59979332058397,44.51955014368105,0 18.59535384660591,44.51856705785639,0 18.59138107761134,44.51836406548709,0 18.59195050585857,44.51652986811253,0 18.5943136261478,44.51455615907665,0 18.59534609248307,44.51318813732205,0 18.59701276112253,44.51221481479319,0 18.60082290285415,44.51065275861434,0 
					</coordinates>
				</LinearRing>
			</outerBoundaryIs>
		</Polygon>
	</Placemark>
</Document>
</kml>
